[{"OBJECT_NAME":"CS1","OBJECT_ID":"2021-088B","EPOCH":"2026-03-09T18:02:30.253920","MEAN_MOTION":15.31848439,"ECCENTRICITY":0.00141292,"INCLINATION":97.3882,"RA_OF_ASC_NODE":132.1684,"ARG_OF_PERICENTER":78.0335,"MEAN_ANOMALY":282.249,"EPHEMERIS_TYPE":0,"CLASSIFICATION_TYPE":"U","NORAD_CAT_ID":49261,"ELEMENT_SET_NO":999,"REV_AT_EPOCH":24518,"BSTAR":0.00051175576,"MEAN_MOTION_DOT":0.00015722,"MEAN_MOTION_DDOT":0},{"OBJECT_NAME":"STARLINK-35901","OBJECT_ID":"2025-294P","EPOCH":"2026-03-09T22:10:45.302016","MEAN_MOTION":15.27583945,"ECCENTRICITY":0.00014275,"INCLINATION":43.0016,"RA_OF_ASC_NODE":36.8681,"ARG_OF_PERICENTER":251.9076,"MEAN_ANOMALY":108.162,"EPHEMERIS_TYPE":0,"CLASSIFICATION_TYPE":"U","NORAD_CAT_ID":67043,"ELEMENT_SET_NO":999,"REV_AT_EPOCH":1483,"BSTAR":0.0015173573,"MEAN_MOTION_DOT":0.00041734,"MEAN_MOTION_DDOT":0}]
